{"type": "FeatureCollection", "features": [ {"type": "Feature", "properties": {"norad_id": 37216, "name": "COSMO-SKYMED 4", "group": "resource", "lat": 20.85180078268505, "lon": 2.1240466734722623, "alt_km": 622.3282179963035, "timestamp": "2025-12-23T22:42:32.634886+00:00", "meta": {"OBJECT_NAME": "COSMO-SKYMED 4", "OBJECT_ID": "2010-060A", "EPOCH": "2025-12-23T07:24:45.434016", "MEAN_MOTION": 14.82154612, "ECCENTRICITY": 0.00013793, "INCLINATION": 97.88, "RA_OF_ASC_NODE": 178.4726, "ARG_OF_PERICENTER": 80.881, "MEAN_ANOMALY": 279.2559, "EPHEMERIS_TYPE": 0, "CLASSIFICATION_TYPE": "U", "NORAD_CAT_ID": 37216, "ELEMENT_SET_NO": 999, "REV_AT_EPOCH": 81851, "BSTAR": -2.289091e-06, "MEAN_MOTION_DOT": -7e-07, "MEAN_MOTION_DDOT": 0}, "tle": {"line1": "1 37216U 10060A   25357.30885919 -.00000070  00000+0 -22891-5 0  9996", "line2": "2 37216  97.8800 178.4726 0001379  80.8810 279.2559 14.82154612818519"}}, "geometry": {"type": "Point", "coordinates": [2.1240466734722623, 20.85180078268505]}}, {"type": "Feature", "properties": {"norad_id": 37387, "name": "RESOURCESAT-2", "group": "resource", "lat": -24.82936710735872, "lon": -122.6567194783917, "alt_km": 829.6204783128578, "timestamp": "2025-12-23T22:42:32.634897+00:00", "meta": {"OBJECT_NAME": "RESOURCESAT-2", "OBJECT_ID": "2011-015A", "EPOCH": "2025-12-23T01:28:38.314848", "MEAN_MOTION": 14.216012, "ECCENTRICITY": 0.00059354, "INCLINATION": 98.7862, "RA_OF_ASC_NODE": 60.5664, "ARG_OF_PERICENTER": 14.45, "MEAN_ANOMALY": 345.6845, "EPHEMERIS_TYPE": 0, "CLASSIFICATION_TYPE": "U", "NORAD_CAT_ID": 37387, "ELEMENT_SET_NO": 999, "REV_AT_EPOCH": 76115, "BSTAR": 8.7816171e-05, "MEAN_MOTION_DOT": 1.48e-06, "MEAN_MOTION_DDOT": 0}, "tle": {"line1": "1 37387U 11015A   25357.06155457  .00000148  00000+0  87816-4 0  9997", "line2": "2 37387  98.7862  60.5664 0005935  14.4500 345.6845 14.21601200761155"}}, "geometry": {"type": "Point", "coordinates": [-122.6567194783917, -24.82936710735872]}}, {"type": "Feature", "properties": {"norad_id": 37781, "name": "HAIYANG-2A", "group": "resource", "lat": -29.281645799384254, "lon": 4.001190919902374, "alt_km": 973.9547908365057, "timestamp": "2025-12-23T22:42:32.634907+00:00", "meta": {"OBJECT_NAME": "HAIYANG-2A", "OBJECT_ID": "2011-043A", "EPOCH": "2025-12-23T07:10:44.904576", "MEAN_MOTION": 13.78836069, "ECCENTRICITY": 0.00016053, "INCLINATION": 99.3372, "RA_OF_ASC_NODE": 358.0707, "ARG_OF_PERICENTER": 69.7013, "MEAN_ANOMALY": 290.4311, "EPHEMERIS_TYPE": 0, "CLASSIFICATION_TYPE": "U", "NORAD_CAT_ID": 37781, "ELEMENT_SET_NO": 999, "REV_AT_EPOCH": 72244, "BSTAR": 0.00010694831, "MEAN_MOTION_DOT": 6.5e-07, "MEAN_MOTION_DDOT": 0}, "tle": {"line1": "1 37781U 11043A   25357.29913084  .00000065  00000+0  10695-3 0  9997", "line2": "2 37781  99.3372 358.0707 0001605  69.7013 290.4311 13.78836069722449"}}, "geometry": {"type": "Point", "coordinates": [4.001190919902374, -29.281645799384254]}}, {"type": "Feature", "properties": {"norad_id": 37791, "name": "RASAT", "group": "resource", "lat": 73.11676598653432, "lon": 59.18644042646735, "alt_km": 649.838347194248, "timestamp": "2025-12-23T22:42:32.634922+00:00", "meta": {"OBJECT_NAME": "RASAT", "OBJECT_ID": "2011-044D", "EPOCH": "2025-12-23T06:23:25.154304", "MEAN_MOTION": 14.67922953, "ECCENTRICITY": 0.00213873, "INCLINATION": 98.0649, "RA_OF_ASC_NODE": 86.368, "ARG_OF_PERICENTER": 33.2587, "MEAN_ANOMALY": 50.6749, "EPHEMERIS_TYPE": 0, "CLASSIFICATION_TYPE": "U", "NORAD_CAT_ID": 37791, "ELEMENT_SET_NO": 999, "REV_AT_EPOCH": 76737, "BSTAR": 0.00010019095, "MEAN_MOTION_DOT": 5.26e-06, "MEAN_MOTION_DDOT": 0}, "tle": {"line1": "1 37791U 11044D   25357.26626336  .00000526  00000+0  10019-3 0  9999", "line2": "2 37791  98.0649  86.3680 0021387  33.2587  50.6749 14.67922953767374"}}, "geometry": {"type": "Point", "coordinates": [59.18644042646735, 73.11676598653432]}}, {"type": "Feature", "properties": {"norad_id": 37841, "name": "SRMSAT", "group": "resource", "lat": -19.796590822696, "lon": -57.53988014363649, "alt_km": 862.6598243275457, "timestamp": "2025-12-23T22:42:32.634934+00:00", "meta": {"OBJECT_NAME": "SRMSAT", "OBJECT_ID": "2011-058D", "EPOCH": "2025-12-23T04:41:09.936096", "MEAN_MOTION": 14.1151481, "ECCENTRICITY": 0.00119884, "INCLINATION": 19.9729, "RA_OF_ASC_NODE": 44.6728, "ARG_OF_PERICENTER": 67.9566, "MEAN_ANOMALY": 330.6291, "EPHEMERIS_TYPE": 0, "CLASSIFICATION_TYPE": "U", "NORAD_CAT_ID": 37841, "ELEMENT_SET_NO": 999, "REV_AT_EPOCH": 73292, "BSTAR": 8.3003529e-05, "MEAN_MOTION_DOT": 4.18e-06, "MEAN_MOTION_DDOT": 0}, "tle": {"line1": "1 37841U 11058D   25357.19525389  .00000418  00000+0  83004-4 0  9993", "line2": "2 37841  19.9729  44.6728 0011988  67.9566 330.6291 14.11514810732922"}}, "geometry": {"type": "Point", "coordinates": [-57.53988014363649, -19.796590822696]}}, {"type": "Feature", "properties": {"norad_id": 38012, "name": "PLEIADES 1A", "group": "resource", "lat": -33.232860110798015, "lon": -114.86695262633248, "alt_km": 704.5491451288872, "timestamp": "2025-12-23T22:42:32.634944+00:00", "meta": {"OBJECT_NAME": "PLEIADES 1A", "OBJECT_ID": "2011-076F", "EPOCH": "2025-12-23T07:19:25.686624", "MEAN_MOTION": 14.58570344, "ECCENTRICITY": 0.00011073, "INCLINATION": 98.1814, "RA_OF_ASC_NODE": 69.9108, "ARG_OF_PERICENTER": 74.9554, "MEAN_ANOMALY": 14.4725, "EPHEMERIS_TYPE": 0, "CLASSIFICATION_TYPE": "U", "NORAD_CAT_ID": 38012, "ELEMENT_SET_NO": 999, "REV_AT_EPOCH": 74635, "BSTAR": 8.9013882e-05, "MEAN_MOTION_DOT": 3.68e-06, "MEAN_MOTION_DDOT": 0}, "tle": {"line1": "1 38012U 11076F   25357.30515841  .00000368  00000+0  89014-4 0  9990", "line2": "2 38012  98.1814  69.9108 0001107  74.9554  14.4725 14.58570344746352"}}, "geometry": {"type": "Point", "coordinates": [-114.86695262633248, -33.232860110798015]}}, {"type": "Feature", "properties": {"norad_id": 38038, "name": "ZIYUAN 1-02C (ZY 1-02C)", "group": "resource", "lat": 13.337788442760262, "lon": 61.737651458673405, "alt_km": 766.5920472549105, "timestamp": "2025-12-23T22:42:32.634955+00:00", "meta": {"OBJECT_NAME": "ZIYUAN 1-02C (ZY 1-02C)", "OBJECT_ID": "2011-079A", "EPOCH": "2025-12-23T08:01:42.813120", "MEAN_MOTION": 14.38023173, "ECCENTRICITY": 0.00075206, "INCLINATION": 98.4321, "RA_OF_ASC_NODE": 63.1528, "ARG_OF_PERICENTER": 110.7939, "MEAN_ANOMALY": 338.0833, "EPHEMERIS_TYPE": 0, "CLASSIFICATION_TYPE": "U", "NORAD_CAT_ID": 38038, "ELEMENT_SET_NO": 999, "REV_AT_EPOCH": 73393, "BSTAR": 0.00017187506, "MEAN_MOTION_DOT": 4.77e-06, "MEAN_MOTION_DDOT": 0}, "tle": {"line1": "1 38038U 11079A   25357.33452330  .00000477  00000+0  17188-3 0  9990", "line2": "2 38038  98.4321  63.1528 0007520 110.7939 338.0833 14.38023173733935"}}, "geometry": {"type": "Point", "coordinates": [61.737651458673405, 13.337788442760262]}}, {"type": "Feature", "properties": {"norad_id": 38338, "name": "ARIRANG-3 (KOMPSAT-3)", "group": "resource", "lat": -57.17180286318377, "lon": 119.4881567781889, "alt_km": 693.0568257173718, "timestamp": "2025-12-23T22:42:32.634965+00:00", "meta": {"OBJECT_NAME": "ARIRANG-3 (KOMPSAT-3)", "OBJECT_ID": "2012-025B", "EPOCH": "2025-12-23T06:50:13.081632", "MEAN_MOTION": 14.61725691, "ECCENTRICITY": 0.00047595, "INCLINATION": 98.3338, "RA_OF_ASC_NODE": 311.9545, "ARG_OF_PERICENTER": 301.2847, "MEAN_ANOMALY": 58.7887, "EPHEMERIS_TYPE": 0, "CLASSIFICATION_TYPE": "U", "NORAD_CAT_ID": 38338, "ELEMENT_SET_NO": 999, "REV_AT_EPOCH": 72564, "BSTAR": 0.00011453598, "MEAN_MOTION_DOT": 5.22e-06, "MEAN_MOTION_DDOT": 0}, "tle": {"line1": "1 38338U 12025B   25357.28487363  .00000522  00000+0  11454-3 0  9994", "line2": "2 38338  98.3338 311.9545 0004759 301.2847  58.7887 14.61725691725648"}}, "geometry": {"type": "Point", "coordinates": [119.4881567781889, -57.17180286318377]}}, {"type": "Feature", "properties": {"norad_id": 38709, "name": "EXACTVIEW-1 (ADS-1B)", "group": "resource", "lat": -13.348795843050095, "lon": -75.57515487096269, "alt_km": 817.7012453572434, "timestamp": "2025-12-23T22:42:32.634975+00:00", "meta": {"OBJECT_NAME": "EXACTVIEW-1 (ADS-1B)", "OBJECT_ID": "2012-039C", "EPOCH": "2025-12-23T04:57:03.171744", "MEAN_MOTION": 14.24911902, "ECCENTRICITY": 0.00101818, "INCLINATION": 98.9637, "RA_OF_ASC_NODE": 105.816, "ARG_OF_PERICENTER": 322.8874, "MEAN_ANOMALY": 37.16, "EPHEMERIS_TYPE": 0, "CLASSIFICATION_TYPE": "U", "NORAD_CAT_ID": 38709, "ELEMENT_SET_NO": 999, "REV_AT_EPOCH": 69764, "BSTAR": 7.5796241e-05, "MEAN_MOTION_DOT": 1.31e-06, "MEAN_MOTION_DDOT": 0}, "tle": {"line1": "1 38709U 12039C   25357.20628671  .00000131  00000+0  75796-4 0  9998", "line2": "2 38709  98.9637 105.8160 0010181 322.8874  37.1600 14.24911902697649"}}, "geometry": {"type": "Point", "coordinates": [-75.57515487096269, -13.348795843050095]}}, {"type": "Feature", "properties": {"norad_id": 38755, "name": "SPOT 6", "group": "resource", "lat": 42.429646233087155, "lon": -109.94365308322723, "alt_km": 693.9673593898624, "timestamp": "2025-12-23T22:42:32.634985+00:00", "meta": {"OBJECT_NAME": "SPOT 6", "OBJECT_ID": "2012-047A", "EPOCH": "2025-12-23T07:15:55.052064", "MEAN_MOTION": 14.5854129, "ECCENTRICITY": 0.00012787, "INCLINATION": 98.156, "RA_OF_ASC_NODE": 61.8923, "ARG_OF_PERICENTER": 78.1597, "MEAN_ANOMALY": 281.9745, "EPHEMERIS_TYPE": 0, "CLASSIFICATION_TYPE": "U", "NORAD_CAT_ID": 38755, "ELEMENT_SET_NO": 999, "REV_AT_EPOCH": 70741, "BSTAR": 0.0001063697, "MEAN_MOTION_DOT": 4.49e-06, "MEAN_MOTION_DDOT": 0}, "tle": {"line1": "1 38755U 12047A   25357.30272051  .00000449  00000+0  10637-3 0  9990", "line2": "2 38755  98.1560  61.8923 0001278  78.1597 281.9745 14.58541290707417"}}, "geometry": {"type": "Point", "coordinates": [-109.94365308322723, 42.429646233087155]}}]}